[{"OBJECT_NAME":"STARLINK-31423","OBJECT_ID":"2024-049M","EPOCH":"2026-03-09T13:29:41.233056","MEAN_MOTION":15.27583183,"ECCENTRICITY":0.0001346,"INCLINATION":43.0005,"RA_OF_ASC_NODE":144.5037,"ARG_OF_PERICENTER":254.2471,"MEAN_ANOMALY":105.8232,"EPHEMERIS_TYPE":0,"CLASSIFICATION_TYPE":"U","NORAD_CAT_ID":59242,"ELEMENT_SET_NO":999,"REV_AT_EPOCH":11238,"BSTAR":-4.5549e-5,"MEAN_MOTION_DOT":-1.515e-5,"MEAN_MOTION_DDOT":0},{"OBJECT_NAME":"FLOCK 4G-22","OBJECT_ID":"2025-009AN","EPOCH":"2026-03-09T22:51:40.689792","MEAN_MOTION":15.2720903,"ECCENTRICITY":8.959e-5,"INCLINATION":97.4046,"RA_OF_ASC_NODE":151.5884,"ARG_OF_PERICENTER":284.1963,"MEAN_ANOMALY":75.9176,"EPHEMERIS_TYPE":0,"CLASSIFICATION_TYPE":"U","NORAD_CAT_ID":62645,"ELEMENT_SET_NO":999,"REV_AT_EPOCH":6376,"BSTAR":0.00049035383,"MEAN_MOTION_DOT":0.00013013,"MEAN_MOTION_DDOT":0}]
